H1 CPF 01  gfz 2022 08 07 12  7192 tandemx   
H2 1003001  6202 36605    2022 08 07 12 59 42 2022 08 12 00 00 42   120 1 1  0 0 0
H9
10 0 59800   6462.000000  0   -1220060.195   -466886.777   6752513.990
10 0 59800   6582.000000  0    -818106.269    358449.722   6819339.249
10 0 59800   6702.000000  0    -387552.544   1170247.209   6766340.865
10 0 59800   6822.000000  0      63724.677   1953909.176   6594445.033
10 0 59800   6942.000000  0     527236.869   2695468.688   6306654.356
10 0 59800   7062.000000  0     994042.150   3381837.239   5907998.295
10 0 59800   7182.000000  0    1454916.468   4001037.989   5405450.776
10 0 59800   7302.000000  0    1900534.741   4542419.200   4807814.208
10 0 59800   7422.000000  0    2321659.534   4996844.191   4125570.892
10 0 59800   7542.000000  0    2709332.334   5356851.661   3370702.873
10 0 59800   7662.000000  0    3055064.122   5616786.476   2556485.629
10 0 59800   7782.000000  0    3351021.825   5772898.091   1697252.000
10 0 59800   7902.000000  0    3590202.838   5823396.790    808133.868
10 0 59800   8022.000000  0    3766594.563   5768472.020    -95210.807
10 0 59800   8142.000000  0    3875316.318   5610270.005   -996882.400
10 0 59800   8262.000000  0    3912738.082   5352831.778  -1881027.504
10 0 59800   8382.000000  0    3876574.413   5001994.049  -2732125.350
10 0 59800   8502.000000  0    3765950.011   4565254.454  -3535266.288
10 0 59800   8622.000000  0    3581435.700   4051605.274  -4276415.366
10 0 59800   8742.000000  0    3325055.624   3471341.956  -4942655.548
10 0 59800   8862.000000  0    3000265.628   2835850.513  -5522408.551
10 0 59800   8982.000000  0    2611903.139   2157378.348  -6005627.653
10 0 59800   9102.000000  0    2166110.931   1448795.136  -6383961.409
10 0 59800   9222.000000  0    1670236.485    723348.074  -6650885.648
10 0 59800   9342.000000  0    1132710.576     -5582.665  -6801804.786
10 0 59800   9462.000000  0     562904.426   -724726.181  -6834124.000
10 0 59800   9582.000000  0     -29031.850  -1421157.391  -6747287.473
10 0 59800   9702.000000  0    -632345.008  -2082522.345  -6542786.020
10 0 59800   9822.000000  0   -1235868.943  -2697252.115  -6224135.838
10 0 59800   9942.000000  0   -1828226.583  -3254762.878  -5796824.330
10 0 59800  10062.000000  0   -2398039.303  -3745637.135  -5268225.234
10 0 59800  10182.000000  0   -2934142.932  -4161785.890  -4647484.061
10 0 59800  10302.000000  0   -3425806.799  -4496587.966  -3945370.885
10 0 59800  10422.000000  0   -3862949.597  -4745002.032  -3174102.834
10 0 59800  10542.000000  0   -4236348.779  -4903649.942  -2347138.917
10 0 59800  10662.000000  0   -4537838.586  -4970868.317  -1478948.741
10 0 59800  10782.000000  0   -4760491.260  -4946726.708   -584759.136
10 0 59800  10902.000000  0   -4898776.539  -4833011.334    319716.672
10 0 59800  11022.000000  0   -4948695.162  -4633174.224   1218562.343
10 0 59800  11142.000000  0   -4907881.891  -4352247.486   2095948.118
10 0 59800  11262.000000  0   -4775674.956  -3996725.066   2936418.835
10 0 59800  11382.000000  0   -4553150.919  -3574415.747   3725173.917
10 0 59800  11502.000000  0   -4243124.258  -3094271.404   4448334.172
10 0 59800  11622.000000  0   -3850110.655  -2566193.874   5093189.237
10 0 59800  11742.000000  0   -3380256.924  -2000827.301   5648419.440
10 0 59800  11862.000000  0   -2841240.310  -1409341.414   6104291.673
10 0 59800  11982.000000  0   -2242137.685   -803208.254   6452826.801
10 0 59800  12102.000000  0   -1593266.934   -193976.605   6687933.815
10 0 59800  12222.000000  0    -906004.971    406948.126   6805508.471
10 0 59800  12342.000000  0    -192587.793    988515.715   6803500.079
10 0 59800  12462.000000  0     534107.057   1540233.793   6681945.354
10 0 59800  12582.000000  0    1260792.464   2052357.255   6442967.924
10 0 59800  12702.000000  0    1974014.014   2516060.382   6090742.700
10 0 59800  12822.000000  0    2660398.380   2923589.491   5631427.903
10 0 59800  12942.000000  0    3306905.730   3268395.357   5073064.302
10 0 59800  13062.000000  0    3901080.992   3545241.979   4425439.262
10 0 59800  13182.000000  0    4431296.172   3750288.415   3699920.282
10 0 59800  13302.000000  0    4886985.926   3881145.291   2909260.706
10 0 59800  13422.000000  0    5258864.453   3936900.550   2067372.929
10 0 59800  13542.000000  0    5539119.790   3918114.460   1189081.322
10 0 59800  13662.000000  0    5721581.421   3826784.940    289854.950
10 0 59800  13782.000000  0    5801855.813   3666282.625   -614473.471
10 0 59800  13902.000000  0    5777425.917   3441257.715  -1507995.180
10 0 59800  14022.000000  0    5647712.922   3157520.987  -2375013.477
10 0 59800  14142.000000  0    5414098.383   2821902.724  -3200325.526
10 0 59800  14262.000000  0    5079908.155   2442093.482  -3969492.299
10 0 59800  14382.000000  0    4650358.324   2026470.319  -4669092.774
10 0 59800  14502.000000  0    4132462.533   1583912.155  -5286954.548
10 0 59800  14622.000000  0    3534907.911   1123611.236  -5812357.501
10 0 59800  14742.000000  0    2867901.218    654884.237  -6236210.426
10 0 59800  14862.000000  0    2142988.020    186986.263  -6551196.934
10 0 59800  14982.000000  0    1372850.788   -271067.740  -6751889.890
10 0 59800  15102.000000  0     571088.655   -710672.575  -6834836.598
10 0 59800  15222.000000  0    -248020.449  -1123790.409  -6798611.048
10 0 59800  15342.000000  0   -1069767.603  -1503093.196  -6643834.583
10 0 59800  15462.000000  0   -1879270.511  -1842089.411  -6373167.403
10 0 59800  15582.000000  0   -2661737.269  -2135233.560  -5991267.441
10 0 59800  15702.000000  0   -3402730.762  -2378015.972  -5504718.521
10 0 59800  15822.000000  0   -4088433.213  -2567033.489  -4921929.294
10 0 59800  15942.000000  0   -4705906.440  -2700038.560  -4252999.307
10 0 59800  16062.000000  0   -5243340.573  -2775965.201  -3509554.361
10 0 59800  16182.000000  0   -5690287.759  -2794931.451  -2704553.039
10 0 59800  16302.000000  0   -6037874.952  -2758217.343  -1852065.723
10 0 59800  16422.000000  0   -6278989.714  -2668218.924   -967030.072
10 0 59800  16542.000000  0   -6408434.650  -2528378.626    -64986.767
10 0 59800  16662.000000  0   -6423045.353  -2343093.352    838198.876
10 0 59800  16782.000000  0   -6321769.098  -2117602.408   1726624.378
10 0 59800  16902.000000  0   -6105699.560  -1857857.968   2584640.180
10 0 59800  17022.000000  0   -5778067.647  -1570381.406   3397133.300
10 0 59800  17142.000000  0   -5344190.738  -1262109.407   4149801.278
10 0 59800  17262.000000  0   -4811377.319   -940233.232   4829408.905
10 0 59800  17382.000000  0   -4188794.513   -612036.465   5424020.113
10 0 59800  17502.000000  0   -3487302.549   -284734.902   5923206.029
10 0 59800  17622.000000  0   -2719256.543     34679.126   6318224.699
10 0 59800  17742.000000  0   -1898281.137    339583.126   6602168.334
10 0 59800  17862.000000  0   -1039023.717    623858.190   6770077.759
10 0 59800  17982.000000  0    -156890.903    882009.830   6819023.373
10 0 59800  18102.000000  0     732227.556   1109272.834   6748152.488
10 0 59800  18222.000000  0    1612243.939   1301699.029   6558703.359
10 0 59800  18342.000000  0    2467162.772   1456226.258   6253984.694
10 0 59800  18462.000000  0    3281371.248   1570727.105   5839321.992
10 0 59800  18582.000000  0    4039927.000   1644037.078   5321969.856
10 0 59800  18702.000000  0    4728835.272   1675961.710   4710990.531
10 0 59800  18822.000000  0    5335313.424   1667263.432   4017102.889
10 0 59800  18942.000000  0    5848039.025   1619627.057   3252497.689
10 0 59800  19062.000000  0    6257369.253   1535604.753   2430622.865
10 0 59800  19182.000000  0    6555531.903   1418541.031   1565946.706
10 0 59800  19302.000000  0    6736781.243   1272480.556    673697.573
10 0 59800  19422.000000  0    6797513.610   1102060.521   -230411.132
10 0 59800  19542.000000  0    6736341.471    912390.174  -1130466.933
10 0 59800  19662.000000  0    6554120.499    708920.031  -2010647.424
10 0 59800  19782.000000  0    6253932.709    497304.372  -2855505.166
10 0 59800  19902.000000  0    5841025.464    283261.774  -3650244.101
10 0 59800  20022.000000  0    5322708.302     72436.529  -4380981.166
10 0 59800  20142.000000  0    4708209.527   -129735.671  -5034986.962
10 0 59800  20262.000000  0    4008499.444   -318154.131  -5600900.449
10 0 59800  20382.000000  0    3236085.411   -488169.186  -6068917.700
10 0 59800  20502.000000  0    2404780.888   -635686.210  -6430952.053
10 0 59800  20622.000000  0    1529454.372   -757254.494  -6680761.436
10 0 59800  20742.000000  0     625764.997   -850140.950  -6814045.618
10 0 59800  20862.000000  0    -290114.435   -912386.471  -6828512.779
10 0 59800  20982.000000  0   -1201780.503   -942844.294  -6723913.641
10 0 59800  21102.000000  0   -2092885.966   -941200.552  -6502045.951
10 0 59800  21222.000000  0   -2947426.597   -907976.069  -6166725.936
10 0 59800  21342.000000  0   -3750021.729   -844510.015  -5723729.481
10 0 59800  21462.000000  0   -4486189.437   -752925.501  -5180704.422
10 0 59800  21582.000000  0   -5142610.197   -636077.020  -4547049.476
10 0 59800  21702.000000  0   -5707373.187   -497481.348  -3833763.187
10 0 59800  21822.000000  0   -6170202.513   -341232.473  -3053263.116
10 0 59800  21942.000000  0   -6522656.091   -171901.381  -2219175.946
10 0 59800  22062.000000  0   -6758292.953      5575.814  -1346103.234
10 0 59800  22182.000000  0   -6872805.067    186020.827   -449364.403
10 0 59800  22302.000000  0   -6864105.443    364142.737    455278.627
10 0 59800  22422.000000  0   -6732372.134    534671.461   1351904.720
10 0 59800  22542.000000  0   -6480048.728    692491.355   2224722.084
10 0 59800  22662.000000  0   -6111798.493    832771.659   3058355.963
10 0 59800  22782.000000  0   -5634412.877    951090.541   3838127.936
10 0 59800  22902.000000  0   -5056677.430   1043549.243   4550319.663
99
